FENGYUN 1C DEB          
1 31821U 99025CHK 26156.39662682  .00014736  00000+0  30513-2 0  9996
2 31821  98.1552  39.6889 0199297 200.7933 158.5071 14.48575719961847
FENGYUN 1C DEB          
1 31823U 99025CHM 26163.07538975  .00008246  00000+0  13818-2 0  9996
2 31823  99.5127 283.3670 0035088  25.7912 334.5029 14.69673138993781
FENGYUN 1C DEB          
1 31825U 99025CHP 26163.73368042  .00000822  00000+0  33981-3 0  9993
2 31825  98.5945 163.7668 0165184 169.4692 191.0015 14.22129719982082
FENGYUN 1C DEB          
1 31826U 99025CHQ 26162.24500906  .00000732  00000+0  33934-3 0  9994
2 31826  98.6374 153.8810 0124572  29.4593 346.5083 14.19616836983754
FENGYUN 1C DEB          
1 31829U 99025CHT 26160.24405492  .00000306  00000+0  25569-3 0  9991
2 31829  98.8555 326.0729 0169168  38.4573 138.9692 13.88864630966258
FENGYUN 1C DEB          
1 31830U 99025CHU 26152.24303061  .00002645  00000+0  21115-2 0  9993
2 31830  99.1658 258.7298 0184876 217.4608 171.7191 13.84201807950980
FENGYUN 1C DEB          
1 31834U 99025CHY 26160.83201920  .00000236  00000+0  15760-3 0  9996
2 31834  98.3500  11.6758 0160273 290.8131  67.5934 14.03373590662224
FENGYUN 1C DEB          
1 31836U 99025CJA 26146.83799536  .00003739  00000+0  19717-2 0  9993
2 31836  98.6244 110.2828 0113546   8.2876 352.0137 14.11229669637311
FENGYUN 1C DEB          
1 31837U 99025CJB 26158.50396195  .00010798  00000+0  11587-2 0  9995
2 31837  98.0852 241.5627 0088562 161.8219 198.6196 14.85906504  9742
FENGYUN 1C DEB          
1 31838U 99025CJC 26162.40174022  .00000934  00000+0  44274-3 0  9994
2 31838  98.6975 215.6184 0035831 292.4823 125.8794 14.21638879671432
FENGYUN 1C DEB          
1 31841U 99025CJF 26160.20235106  .00005114  00000+0  20970-2 0  9996
2 31841  98.4366 321.4995 0305127 159.0879  16.9112 14.05219576618448
FENGYUN 1C DEB          
1 31843U 99025CJH 26142.07234269  .00003288  00000+0  20617-2 0  9990
2 31843  99.2933  74.2535 0631327 318.2493  37.2055 13.35694215668353
FENGYUN 1C DEB          
1 31844U 99025CJJ 26163.78574150  .00001259  00000+0  58292-3 0  9995
2 31844 100.2996 187.1897 0101624 211.9863 147.5113 14.20406982979164
FENGYUN 1C DEB          
1 31854U 99025CJU 26162.28600218  .00000607  00000+0  40728-3 0  9996
2 31854  98.8491 165.5677 0071742 359.0301   1.0715 14.03309942718040
FENGYUN 1C DEB          
1 31857U 99025CJX 26161.66432409  .00001478  00000+0  13956-2 0  9994
2 31857  96.1880 130.9469 0308905 140.3726 222.0450 13.62606171640792
FENGYUN 1C DEB          
1 31861U 99025CKB 26159.45479170  .00001618  00000+0  18226-2 0  9990
2 31861 102.3375  32.6640 0487883 179.0276 181.1900 13.31016510691314
FENGYUN 1C DEB          
1 31877U 99025CKC 26162.09261867  .00009964  00000+0  61005-3 0  9999
2 31877  98.9953 266.6659 0095034  49.8824 311.0679 15.06701286 17525
FENGYUN 1C DEB          
1 31878U 99025CKD 26162.63451727  .00012377  00000+0  12049-2 0  9991
2 31878  99.4516 125.6496 0078829  31.0123 329.5709 14.90374719  7535
FENGYUN 1C DEB          
1 31879U 99025CKE 26158.47623912  .00000810  00000+0  20100-3 0  9993
2 31879  99.6921  66.4020 0206778 243.5398 114.4445 14.43442826657591
FENGYUN 1C DEB          
1 31880U 99025CKF 26154.72718126  .00000792  00000+0  64248-3 0  9991
2 31880 100.0427 335.9352 0128099  58.0075 303.3456 13.89717019653824
FENGYUN 1C DEB          
1 31882U 99025CKH 26162.04587421  .00000794  00000+0  44323-3 0  9993
2 31882  98.9226  88.9697 0037908  74.1075 286.4271 14.13403755611830
FENGYUN 1C DEB          
1 31883U 99025CKJ 26163.05426932  .00002191  00000+0  34159-3 0  9994
2 31883  99.0374 103.5686 0119097 228.8963 130.1908 14.69527364  6253
FENGYUN 1C DEB          
1 31887U 99025CKN 26159.50240496  .00002803  00000+0  59275-3 0  9998
2 31887  99.5223 242.0763 0022186 191.8029 168.2650 14.60147506992004
FENGYUN 1C DEB          
1 31888U 99025CKP 26163.09466006  .00003479  00000+0  12125-2 0  9997
2 31888  99.1594 105.3954 0020711  49.4267 310.8716 14.35926987982387
FENGYUN 1C DEB          
1 31890U 99025CKR 26162.30866779  .00000198  00000+0  13226-3 0  9993
2 31890  98.7119 173.2911 0073713  90.7655 270.1962 14.10213490666971
FENGYUN 1C DEB          
1 31891U 99025CKS 26163.28652118  .00000425  00000+0  47290-3 0  9993
2 31891  99.3917 178.1431 0225898  75.0088 287.5941 13.66393418948897
FENGYUN 1C DEB          
1 31892U 99025CKT 26161.78545204  .00001746  00000+0  43425-3 0  9997
2 31892  99.2977 352.5163 0197745 118.2461 243.8844 14.42104168675001
FENGYUN 1C DEB          
1 31893U 99025CKU 26161.78625296  .00001091  00000+0  17536-3 0  9995
2 31893  99.0920 143.5521 0174323 134.8705 346.2099 14.64458184 10272
FENGYUN 1C DEB          
1 31895U 99025CKW 26163.79098273  .00002346  00000+0  20184-2 0  9995
2 31895  99.0760 189.4558 0227703 107.4755 255.1422 13.76397587644000
FENGYUN 1C DEB          
1 31898U 99025CKZ 26141.41369253  .00003974  00000+0  57012-3 0  9991
2 31898  98.6896  21.6164 0141827  80.8767 280.8452 14.70442825680578
