OBJECT_NAME,OBJECT_ID,EPOCH,MEAN_MOTION,ECCENTRICITY,INCLINATION,RA_OF_ASC_NODE,ARG_OF_PERICENTER,MEAN_ANOMALY,EPHEMERIS_TYPE,CLASSIFICATION_TYPE,NORAD_CAT_ID,ELEMENT_SET_NO,REV_AT_EPOCH,BSTAR,MEAN_MOTION_DOT,MEAN_MOTION_DDOT
FENGYUN 1C DEB,1999-025CHK,2026-06-05T09:31:08.557248,14.48575719,.0199297,98.1552,39.6889,200.7933,158.5071,0,U,31821,999,96184,.30512977E-2,.14736E-3,0
FENGYUN 1C DEB,1999-025CHM,2026-06-12T01:48:33.674400,14.69673138,.00350881,99.5127,283.3670,25.7912,334.5029,0,U,31823,999,99378,.13817752E-2,.8246E-4,0
FENGYUN 1C DEB,1999-025CHP,2026-06-12T17:36:29.988288,14.22129719,.0165184,98.5945,163.7668,169.4692,191.0015,0,U,31825,999,98208,.33981E-3,.822E-5,0
FENGYUN 1C DEB,1999-025CHQ,2026-06-11T05:52:48.782784,14.19616836,.0124572,98.6374,153.8810,29.4593,346.5083,0,U,31826,999,98375,.33934E-3,.732E-5,0
FENGYUN 1C DEB,1999-025CHT,2026-06-09T05:51:26.345088,13.88864630,.0169168,98.8555,326.0729,38.4573,138.9692,0,U,31829,999,96625,.25569E-3,.306E-5,0
FENGYUN 1C DEB,1999-025CHU,2026-06-01T05:49:57.844704,13.84201807,.01848761,99.1658,258.7298,217.4608,171.7191,0,U,31830,999,95098,.21115372E-2,.2645E-4,0
FENGYUN 1C DEB,1999-025CHY,2026-06-09T19:58:06.458880,14.03373590,.01602738,98.3500,11.6758,290.8131,67.5934,0,U,31834,999,66222,.15760171E-3,.236E-5,0
FENGYUN 1C DEB,1999-025CJA,2026-05-26T20:06:42.799104,14.11229669,.01135469,98.6244,110.2828,8.2876,352.0137,0,U,31836,999,63731,.19716749E-2,.3739E-4,0
FENGYUN 1C DEB,1999-025CJB,2026-06-07T12:05:42.312480,14.85906504,.00885626,98.0852,241.5627,161.8219,198.6196,0,U,31837,999,974,.11587282E-2,.10798E-3,0
FENGYUN 1C DEB,1999-025CJC,2026-06-11T09:38:30.355008,14.21638879,.0035831,98.6975,215.6184,292.4823,125.8794,0,U,31838,999,67143,.44274E-3,.934E-5,0
FENGYUN 1C DEB,1999-025CJF,2026-06-09T04:51:23.131584,14.05219576,.03051273,98.4366,321.4995,159.0879,16.9112,0,U,31841,999,61844,.20969642E-2,.5114E-4,0
FENGYUN 1C DEB,1999-025CJH,2026-05-22T01:44:10.408416,13.35694215,.06313275,99.2933,74.2535,318.2493,37.2055,0,U,31843,999,66835,.20616965E-2,.3288E-4,0
FENGYUN 1C DEB,1999-025CJJ,2026-06-12T18:51:28.065600,14.20406982,.0101624,100.2996,187.1897,211.9863,147.5113,0,U,31844,999,97916,.58292E-3,.1259E-4,0
FENGYUN 1C DEB,1999-025CJU,2026-06-11T06:51:50.588352,14.03309942,.0071742,98.8491,165.5677,359.0301,1.0715,0,U,31854,999,71804,.40728E-3,.607E-5,0
FENGYUN 1C DEB,1999-025CJX,2026-06-10T15:56:37.601376,13.62606171,.03089059,96.1880,130.9469,140.3726,222.0450,0,U,31857,999,64079,.13955665E-2,.1478E-4,0
FENGYUN 1C DEB,1999-025CKB,2026-06-08T10:54:54.002880,13.31016510,.04878836,102.3375,32.6640,179.0276,181.1900,0,U,31861,999,69131,.18226074E-2,.1618E-4,0
FENGYUN 1C DEB,1999-025CKC,2026-06-11T02:13:22.253088,15.06701286,.00950342,98.9953,266.6659,49.8824,311.0679,0,U,31877,999,1752,.61005086E-3,.9964E-4,0
FENGYUN 1C DEB,1999-025CKD,2026-06-11T15:13:42.292128,14.90374719,.00788293,99.4516,125.6496,31.0123,329.5709,0,U,31878,999,753,.12048751E-2,.12377E-3,0
FENGYUN 1C DEB,1999-025CKE,2026-06-07T11:25:47.059968,14.43442826,.02067783,99.6921,66.4020,243.5398,114.4445,0,U,31879,999,65759,.20100302E-3,.81E-5,0
FENGYUN 1C DEB,1999-025CKF,2026-06-03T17:27:08.460864,13.89717019,.01280999,100.0427,335.9352,58.0075,303.3456,0,U,31880,999,65382,.64248176E-3,.792E-5,0
FENGYUN 1C DEB,1999-025CKH,2026-06-11T01:06:03.531744,14.13403755,.00379084,98.9226,88.9697,74.1075,286.4271,0,U,31882,999,61183,.44323163E-3,.794E-5,0
FENGYUN 1C DEB,1999-025CKJ,2026-06-12T01:18:08.869248,14.69527364,.01190978,99.0374,103.5686,228.8963,130.1908,0,U,31883,999,625,.34158613E-3,.2191E-4,0
FENGYUN 1C DEB,1999-025CKN,2026-06-08T12:03:27.788544,14.60147506,.00221864,99.5223,242.0763,191.8029,168.2650,0,U,31887,999,99200,.59275314E-3,.2803E-4,0
FENGYUN 1C DEB,1999-025CKP,2026-06-12T02:16:18.629184,14.35926987,.00207115,99.1594,105.3954,49.4267,310.8716,0,U,31888,999,98238,.12124759E-2,.3479E-4,0
FENGYUN 1C DEB,1999-025CKR,2026-06-11T07:24:28.897056,14.10213490,.0073713,98.7119,173.2911,90.7655,270.1962,0,U,31890,999,66697,.13226E-3,.198E-5,0
FENGYUN 1C DEB,1999-025CKS,2026-06-12T06:52:35.429952,13.66393418,.02258981,99.3917,178.1431,75.0088,287.5941,0,U,31891,999,94889,.47289506E-3,.425E-5,0
FENGYUN 1C DEB,1999-025CKT,2026-06-10T18:51:03.056256,14.42104168,.01977452,99.2977,352.5163,118.2461,243.8844,0,U,31892,999,67500,.4342547E-3,.1746E-4,0
FENGYUN 1C DEB,1999-025CKU,2026-06-10T18:52:12.255744,14.64458184,.01743237,99.0920,143.5521,134.8705,346.2099,0,U,31893,999,1027,.17536406E-3,.1091E-4,0
FENGYUN 1C DEB,1999-025CKW,2026-06-12T18:59:00.907872,13.76397587,.0227703,99.0760,189.4558,107.4755,255.1422,0,U,31895,999,64400,.20184E-2,.2346E-4,0
FENGYUN 1C DEB,1999-025CKZ,2026-05-21T09:55:43.034592,14.70442825,.0141827,98.6896,21.6164,80.8767,280.8452,0,U,31898,999,68057,.57012E-3,.3974E-4,0
